TDRS 3                  
1 19548U 88091B   26176.80053846 -.00000297  00000+0  00000+0 0  9996
2 19548  12.5949 340.9469 0037791 356.8738 175.4758  1.00271031125472
FLTSATCOM 8 (USA 46)    
1 20253U 89077A   26176.90626434 -.00000366  00000+0  00000+0 0  9993
2 20253  12.4190 351.1107 0003963  59.5500 315.4109  1.00272987260652
SKYNET 4C               
1 20776U 90079A   26162.20198486  .00000132  00000+0  00000+0 0  9996
2 20776  13.3424 349.8525 0002400  96.2313 279.5534  1.00274127130831
TDRS 5                  
1 21639U 91054B   26176.62461491  .00000084  00000+0  00000+0 0  9995
2 21639  14.0699 353.7180 0005862 271.5407  65.7992  1.00278785127798
TDRS 6                  
1 22314U 93003B   26177.17244957 -.00000296  00000+0  00000+0 0  9995
2 22314  14.1829 356.9915 0008533 179.7319 113.7585  1.00268080122496
UFO 2 (USA 95)          
1 22787U 93056A   26177.17223947  .00000126  00000+0  00000+0 0  9994
2 22787  11.8976   3.5047 0004567   8.7210 352.7041  1.00272944118640
USA 99 (MILSTAR-1 1)    
1 22988U 94009A   26176.94406361 -.00000213  00000+0  00000+0 0  9991
2 22988  17.6398  27.6155 0000594 200.1888 342.3011  0.98723857 33038
UFO 4 (USA 108)         
1 23467U 95003A   26176.80530961 -.00000020  00000+0  00000+0 0  9994
2 23467   9.6837  13.1553 0002998  78.5129 284.3772  1.00273867115043
TDRS 7                  
1 23613U 95035B   26176.97028543 -.00000239  00000+0  00000+0 0  9990
2 23613  13.3735 348.1290 0011826  81.9216 282.3407  1.00278963113345
USA 115 (MILSTAR-1 2)   
1 23712U 95060A   26177.00598005 -.00000208  00000+0  00000+0 0  9994
2 23712  14.0758   3.6840 0002107 133.1212  48.1795  1.00364254 32976
INMARSAT 3-F1           
1 23839U 96020A   26177.16016714 -.00000058  00000+0  00000+0 0  9993
2 23839  10.6190  46.5515 0003834  65.5965 115.1401  0.99978003110341
INMARSAT 3-F2           
1 24307U 96053A   26176.55291066 -.00000311  00000+0  00000+0 0  9999
2 24307   9.8751  53.8509 0006465  37.8190 162.3111  1.00000666109001
INMARSAT 3-F3           
1 24674U 96070A   26176.81681795  .00000129  00000+0  00000+0 0  9992
2 24674  10.3362  49.5703 0003097  41.2561 150.7588  0.99986568107996
USA 134                 
1 25019U 97065A   26177.17664247 -.00000063  00000+0  00000+0 0  9992
2 25019  12.7947  21.6562 0003086 346.9096 216.9327  1.00269973 33042
INMARSAT 3-F5           
1 25153U 98006B   26177.13794713 -.00000289  00000+0  00000+0 0  9995
2 25153   9.7129  53.1719 0004346  36.2302 180.5563  1.00273212103982
ABS-6                   
1 25924U 99053A   26176.82197531 -.00000109  00000+0  00000+0 0  9995
2 25924   0.0285 289.7924 0003647 170.4978 268.5944  1.00269817 97925
UFO 10 (USA 146)        
1 25967U 99063A   26176.93030832 -.00000187  00000+0  00000+0 0  9991
2 25967   9.8408  27.1653 0001599  63.7985 135.0117  1.00269320 97430
ASIASTAR                
1 26107U 00016A   26177.11611580 -.00000332  00000+0  00000+0 0  9996
2 26107   9.1501  58.0591 0004616  32.6885 330.3177  1.00273020 96016
USA 149 (DSP 20)        
1 26356U 00024A   26177.19781087  .00000095  00000+0  00000+0 0  9994
2 26356  13.1771  11.7891 0001658 324.9674 203.5488  1.00279678 33002
TDRS 8                  
1 26388U 00034A   26177.11204247 -.00000196  00000+0  00000+0 0  9993
2 26388  12.6971  31.2453 0004808  23.7879 344.2705  1.00275987 95276
NSS-11                  
1 26554U 00059A   26177.13017453  .00000034  00000+0  00000+0 0  9998
2 26554   2.1496  81.2940 0003116   6.9638  48.8553  1.00272511 41381
USA 153                 
1 26575U 00065A   26175.63348895 -.00000327  00000+0  00000+0 0  9994
2 26575  11.6373  35.3608 0003089  48.9917 190.9042  1.00268508 33002
AMC-6                   
1 26580U 00067A   26177.18633801  .00000099  00000+0  00000+0 0  9993
2 26580   0.1752  83.4246 0003932  20.9701 101.9478  1.00272452 93983
USA 157 (MILSTAR-2 2)   
1 26715U 01009A   26177.21300736  .00000110  00000+0  00000+0 0  9996
2 26715  11.5524  19.7094 0039390 178.2204   3.1193  1.00267052 33038
INTELSAT 902 (IS-902)   
1 26900U 01039A   26177.13794713 -.00000278  00000+0  00000+0 0  9994
2 26900   6.1388  71.6744 0004209  23.6382 178.5113  1.00271695 90784
USA 164 (MILSTAR-2 3)   
1 27168U 02001A   26176.22961412  .00000097  00000+0  00000+0 0  9990
2 27168  11.1892  21.8601 0099755   8.5989 344.5087  1.00270169 33036
INTELSAT 904 (IS-904)   
1 27380U 02007A   26177.11700990 -.00000221  00000+0  00000+0 0  9993
2 27380   6.9421  69.0793 0006534  10.4968 205.3016  1.00273226 51853
DIRECTV 5 (TEMPO 1)     
1 27426U 02023A   26176.78437416 -.00000051  00000+0  00000+0 0  9995
2 27426   4.8997  75.2077 0003506  26.5739 344.4102  1.00272965 88213
INTELSAT 905 (IS-905)   
1 27438U 02027A   26177.20897497  .00000098  00000+0  00000+0 0  9999
2 27438   6.7759  69.6935 0004137  25.9966 116.6677  1.00271747 51458
GALAXY 3C (G-3C)        
1 27445U 02030A   26177.19426329 -.00000145  00000+0  00000+0 0  9995
2 27445   3.7557  77.8632 0001949  25.0083 146.5460  1.00272425 46587
INTELSAT 906 (IS-906)   
1 27513U 02041A   26177.17934617  .00000018  00000+0  00000+0 0  9993
2 27513   5.8247  72.8110 0004227   6.8820 323.3205  1.00272027 87110
